ONEWEB-0027             
1 45432U 20020J   24115.56920791  .00000035  00000+0  56879-4 0  9990
2 45432  87.9198 161.8027 0002521  93.9163 266.2257 13.17647454203162
ONEWEB-0064             
1 45433U 20020K   24115.54115306  .00000518  00000+0  14251-2 0  9999
2 45433  87.9015 176.9434 0002336 103.4747 256.6641 13.11417298199977
ONEWEB-0018             
1 45434U 20020L   24115.57360690 -.00000435  00000+0 -12618-2 0  9996
2 45434  87.9009 176.9300 0001928  99.6369 260.4977 13.11416093199927
ONEWEB-0083             
1 45435U 20020M   24115.56224882 -.00001207  00000+0 -34421-2 0  9992
2 45435  87.9007 176.9125 0002987  98.5858 261.5608 13.11421630199968
ONEWEB-0095             
1 45436U 20020N   24115.55428306  .00000368  00000+0  10012-2 0  9994
2 45436  87.9008 176.9505 0002754  80.7148 279.4291 13.11415931199962
ONEWEB-0092             
1 45437U 20020P   24115.21647554  .00000026  00000+0  38127-4 0  9996
2 45437  87.9013 176.9982 0002176  91.0953 269.0424 13.11418791200036
ONEWEB-0085             
1 45438U 20020Q   24115.55575106  .00000293  00000+0  79063-3 0  9996
2 45438  87.9011 176.9368 0001987 101.1717 258.9635 13.11413967199963
ONEWEB-0096             
1 45439U 20020R   24115.56386233 -.00000121  00000+0 -37821-3 0  9997
2 45439  87.9008 176.9066 0001857 103.8768 256.2567 13.11416027199950
